[{"OBJECT_NAME":"YAOGAN-39 03A","OBJECT_ID":"2023-152A","EPOCH":"2026-03-06T09:52:18.079104","MEAN_MOTION":15.22956575,"ECCENTRICITY":0.00039122,"INCLINATION":35.0006,"RA_OF_ASC_NODE":198.8634,"ARG_OF_PERICENTER":303.7832,"MEAN_ANOMALY":56.251,"EPHEMERIS_TYPE":0,"CLASSIFICATION_TYPE":"U","NORAD_CAT_ID":57986,"ELEMENT_SET_NO":999,"REV_AT_EPOCH":13476,"BSTAR":5.5320223e-5,"MEAN_MOTION_DOT":1.294e-5,"MEAN_MOTION_DDOT":0},{"OBJECT_NAME":"YAOGAN-43 02D","OBJECT_ID":"2024-156D","EPOCH":"2026-03-09T13:08:17.964960","MEAN_MOTION":15.23237701,"ECCENTRICITY":0.000368,"INCLINATION":34.992,"RA_OF_ASC_NODE":104.6408,"ARG_OF_PERICENTER":78.2879,"MEAN_ANOMALY":281.8248,"EPHEMERIS_TYPE":0,"CLASSIFICATION_TYPE":"U","NORAD_CAT_ID":60948,"ELEMENT_SET_NO":999,"REV_AT_EPOCH":8424,"BSTAR":0.00047394,"MEAN_MOTION_DOT":0.0001148,"MEAN_MOTION_DDOT":0}]
