YAOGAN-39 03A           
1 57986U 23152A   26065.41132036  .00001294  00000+0  55320-4 0  9991
2 57986  35.0006 198.8634 0003912 303.7832  56.2510 15.22956575134768
YAOGAN-43 02D           
1 60948U 24156D   26068.54743015  .00011480  00000+0  47394-3 0  9999
2 60948  34.9920 104.6408 0003680  78.2879 281.8248 15.23237701 84249
